{
  "type": "FeatureCollection",
  "features": [
    {
      "type": "Feature",
      "properties": {
        "norad_id": 33651,
        "name": "FENGYUN 1C DEB",
        "group": "fengyun-1c-debris",
        "lat": -58.87565990314864,
        "lon": 58.27432598813707,
        "alt_km": 816.4654507171135,
        "timestamp": "2025-12-24T07:45:06.486670+00:00",
        "meta_object_name": "FENGYUN 1C DEB",
        "meta_object_id": "1999-025DEL",
        "meta_epoch": "2025-12-21T09:01:21.702432",
        "meta_mean_motion": 14.20361447,
        "meta_eccentricity": 0.01173993,
        "meta_inclination": 98.6555,
        "meta_ra_of_asc_node": 40.778,
        "meta_arg_of_pericenter": 29.2021,
        "meta_mean_anomaly": 331.5653,
        "meta_ephemeris_type": 0,
        "meta_classification_type": "U",
        "meta_norad_cat_id": 33651,
        "meta_element_set_no": 999,
        "meta_rev_at_epoch": 64394,
        "meta_bstar": 0.00012970864,
        "meta_mean_motion_dot": 2.55e-06,
        "meta_mean_motion_ddot": 0,
        "tle_line1": "1 33651U 99025DEL 25355.37594563  .00000255  00000+0  12971-3 0  9999",
        "tle_line2": "2 33651  98.6555  40.7780 0117399  29.2021 331.5653 14.20361447643944"
      },
      "geometry": {
        "type": "Point",
        "coordinates": [
          58.27432598813707,
          -58.87565990314864
        ]
      }
    },
    {
      "type": "Feature",
      "properties": {
        "norad_id": 33655,
        "name": "FENGYUN 1C DEB",
        "group": "fengyun-1c-debris",
        "lat": -12.017076481040926,
        "lon": 66.92949820566999,
        "alt_km": 548.2089064027741,
        "timestamp": "2025-12-24T07:45:06.486691+00:00",
        "meta_object_name": "FENGYUN 1C DEB",
        "meta_object_id": "1999-025DEQ",
        "meta_epoch": "2025-12-21T23:42:04.262112",
        "meta_mean_motion": 14.98052954,
        "meta_eccentricity": 0.00467044,
        "meta_inclination": 98.8001,
        "meta_ra_of_asc_node": 62.4091,
        "meta_arg_of_pericenter": 328.0834,
        "meta_mean_anomaly": 31.7557,
        "meta_ephemeris_type": 0,
        "meta_classification_type": "U",
        "meta_norad_cat_id": 33655,
        "meta_element_set_no": 999,
        "meta_rev_at_epoch": 96696,
        "meta_bstar": 0.0019237812,
        "meta_mean_motion_dot": 0.00023252,
        "meta_mean_motion_ddot": 0,
        "tle_line1": "1 33655U 99025DEQ 25355.98754933  .00023252  00000+0  19238-2 0  9993",
        "tle_line2": "2 33655  98.8001  62.4091 0046704 328.0834  31.7557 14.98052954966962"
      },
      "geometry": {
        "type": "Point",
        "coordinates": [
          66.92949820566999,
          -12.017076481040926
        ]
      }
    },
    {
      "type": "Feature",
      "properties": {
        "norad_id": 33656,
        "name": "FENGYUN 1C DEB",
        "group": "fengyun-1c-debris",
        "lat": -32.98780061583569,
        "lon": 165.46088286405762,
        "alt_km": 874.7189413924243,
        "timestamp": "2025-12-24T07:45:06.486702+00:00",
        "meta_object_name": "FENGYUN 1C DEB",
        "meta_object_id": "1999-025DER",
        "meta_epoch": "2025-12-23T17:14:48.532992",
        "meta_mean_motion": 14.22753517,
        "meta_eccentricity": 0.00900245,
        "meta_inclination": 98.5791,
        "meta_ra_of_asc_node": 350.4956,
        "meta_arg_of_pericenter": 359.6185,
        "meta_mean_anomaly": 0.491,
        "meta_ephemeris_type": 0,
        "meta_classification_type": "U",
        "meta_norad_cat_id": 33656,
        "meta_element_set_no": 999,
        "meta_rev_at_epoch": 62865,
        "meta_bstar": 0.00040641916,
        "meta_mean_motion_dot": 9.07e-06,
        "meta_mean_motion_ddot": 0,
        "tle_line1": "1 33656U 99025DER 25357.71861728  .00000907  00000+0  40642-3 0  9994",
        "tle_line2": "2 33656  98.5791 350.4956 0090024 359.6185   0.4910 14.22753517628656"
      },
      "geometry": {
        "type": "Point",
        "coordinates": [
          165.46088286405762,
          -32.98780061583569
        ]
      }
    },
    {
      "type": "Feature",
      "properties": {
        "norad_id": 33658,
        "name": "FENGYUN 1C DEB",
        "group": "fengyun-1c-debris",
        "lat": -64.67744687125223,
        "lon": 172.1888377270738,
        "alt_km": 1195.739757291759,
        "timestamp": "2025-12-24T07:45:06.486712+00:00",
        "meta_object_name": "FENGYUN 1C DEB",
        "meta_object_id": "1999-025DET",
        "meta_epoch": "2025-12-23T03:53:40.204896",
        "meta_mean_motion": 13.62418724,
        "meta_eccentricity": 0.02821954,
        "meta_inclination": 99.5639,
        "meta_ra_of_asc_node": 150.1763,
        "meta_arg_of_pericenter": 154.8644,
        "meta_mean_anomaly": 206.6543,
        "meta_ephemeris_type": 0,
        "meta_classification_type": "U",
        "meta_norad_cat_id": 33658,
        "meta_element_set_no": 999,
        "meta_rev_at_epoch": 58281,
        "meta_bstar": 0.0025802489,
        "meta_mean_motion_dot": 2.573e-05,
        "meta_mean_motion_ddot": 0,
        "tle_line1": "1 33658U 99025DET 25357.16227089  .00002573  00000+0  25802-2 0  9992",
        "tle_line2": "2 33658  99.5639 150.1763 0282195 154.8644 206.6543 13.62418724582818"
      },
      "geometry": {
        "type": "Point",
        "coordinates": [
          172.1888377270738,
          -64.67744687125223
        ]
      }
    },
    {
      "type": "Feature",
      "properties": {
        "norad_id": 33660,
        "name": "FENGYUN 1C DEB",
        "group": "fengyun-1c-debris",
        "lat": 26.011600276931826,
        "lon": -95.51925755759912,
        "alt_km": 1000.85701768948,
        "timestamp": "2025-12-24T07:45:06.486722+00:00",
        "meta_object_name": "FENGYUN 1C DEB",
        "meta_object_id": "1999-025DEV",
        "meta_epoch": "2025-12-20T06:01:35.952384",
        "meta_mean_motion": 13.91779526,
        "meta_eccentricity": 0.0109795,
        "meta_inclination": 98.657,
        "meta_ra_of_asc_node": 264.9426,
        "meta_arg_of_pericenter": 225.2397,
        "meta_mean_anomaly": 290.4354,
        "meta_ephemeris_type": 0,
        "meta_classification_type": "U",
        "meta_norad_cat_id": 33660,
        "meta_element_set_no": 999,
        "meta_rev_at_epoch": 91168,
        "meta_bstar": 0.00029646,
        "meta_mean_motion_dot": 3.55e-06,
        "meta_mean_motion_ddot": 0,
        "tle_line1": "1 33660U 99025DEV 25354.25111056  .00000355  00000+0  29646-3 0  9995",
        "tle_line2": "2 33660  98.6570 264.9426 0109795 225.2397 290.4354 13.91779526911681"
      },
      "geometry": {
        "type": "Point",
        "coordinates": [
          -95.51925755759912,
          26.011600276931826
        ]
      }
    },
    {
      "type": "Feature",
      "properties": {
        "norad_id": 33663,
        "name": "FENGYUN 1C DEB",
        "group": "fengyun-1c-debris",
        "lat": 14.616580637777501,
        "lon": 172.72539265613352,
        "alt_km": 742.0887822844043,
        "timestamp": "2025-12-24T07:45:06.486732+00:00",
        "meta_object_name": "FENGYUN 1C DEB",
        "meta_object_id": "1999-025DEY",
        "meta_epoch": "2025-12-19T16:59:12.916032",
        "meta_mean_motion": 14.62420934,
        "meta_eccentricity": 0.0080658,
        "meta_inclination": 98.8853,
        "meta_ra_of_asc_node": 345.4244,
        "meta_arg_of_pericenter": 352.5038,
        "meta_mean_anomaly": 7.4949,
        "meta_ephemeris_type": 0,
        "meta_classification_type": "U",
        "meta_norad_cat_id": 33663,
        "meta_element_set_no": 999,
        "meta_rev_at_epoch": 64304,
        "meta_bstar": 0.0040155279,
        "meta_mean_motion_dot": 0.00021295,
        "meta_mean_motion_ddot": 0,
        "tle_line1": "1 33663U 99025DEY 25353.70778838  .00021295  00000+0  40155-2 0  9997",
        "tle_line2": "2 33663  98.8853 345.4244 0080658 352.5038   7.4949 14.62420934643048"
      },
      "geometry": {
        "type": "Point",
        "coordinates": [
          172.72539265613352,
          14.616580637777501
        ]
      }
    },
    {
      "type": "Feature",
      "properties": {
        "norad_id": 33664,
        "name": "FENGYUN 1C DEB",
        "group": "fengyun-1c-debris",
        "lat": 38.39121570105695,
        "lon": -26.443175960994207,
        "alt_km": 957.5369933079955,
        "timestamp": "2025-12-24T07:45:06.486742+00:00",
        "meta_object_name": "FENGYUN 1C DEB",
        "meta_object_id": "1999-025DEZ",
        "meta_epoch": "2025-12-23T20:49:41.826144",
        "meta_mean_motion": 14.04001082,
        "meta_eccentricity": 0.01635956,
        "meta_inclination": 98.7022,
        "meta_ra_of_asc_node": 146.1506,
        "meta_arg_of_pericenter": 8.92,
        "meta_mean_anomaly": 351.4814,
        "meta_ephemeris_type": 0,
        "meta_classification_type": "U",
        "meta_norad_cat_id": 33664,
        "meta_element_set_no": 999,
        "meta_rev_at_epoch": 90895,
        "meta_bstar": 0.00020272384,
        "meta_mean_motion_dot": 3.19e-06,
        "meta_mean_motion_ddot": 0,
        "tle_line1": "1 33664U 99025DEZ 25357.86784521  .00000319  00000+0  20272-3 0  9998",
        "tle_line2": "2 33664  98.7022 146.1506 0163595   8.9200 351.4814 14.04001082908950"
      },
      "geometry": {
        "type": "Point",
        "coordinates": [
          -26.443175960994207,
          38.39121570105695
        ]
      }
    }
  ]
}